satname,norad_id,inclination_deg,eccentricity,mean_motion_rev_per_day,perigee_km,apogee_km,l1,l2
STARLINK-1133,45064,53.0549,0.0001539,15.06418542,546.0889275644777,548.2205323589596,1 45064U 20006W   25281.16602897  .00005394  00000+0  38058-3 0  9991,2 45064  53.0549 231.3216 0001539  94.9345 265.1819 15.06418542313754
STARLINK-1167,45071,53.0538,0.0001317,15.064049,546.2844737574724,548.1086066119578,1 45071U 20006AD  25281.12549048  .00002902  00000+0  21360-3 0  9993,2 45071  53.0538 231.5063 0001317  90.6591 269.4549 15.06404900313741
STARLINK-1168,45072,53.054,0.0001316,15.06398683,546.3042179551194,548.126970757954,1 45072U 20006AE  25281.85900091  .00003503  00000+0  25396-3 0  9994,2 45072  53.0540 228.2129 0001316  76.9781 283.1355 15.06398683313858
STARLINK-1172,45074,53.0544,0.0001485,15.06408181,546.1580739275896,548.2148950024766,1 45074U 20006AG  25281.14024223  .00009964  00000+0  68670-3 0  9991,2 45074  53.0544 231.4407 0001485  95.5382 264.5776 15.06408181313743
STARLINK-1153,45080,53.0548,0.0001396,15.06407812,546.2208400705731,548.1543907031901,1 45080U 20006AN  25281.25081016  .00001741  00000+0  13574-3 0  9991,2 45080  53.0548 230.9473 0001396  91.4212 268.6936 15.06407812313764
STARLINK-1151,45081,53.0538,0.0001253,15.06411638,546.3081476690559,548.0436310791338,1 45081U 20006AP  25281.16973039 -.00001556  00000+0 -85556-4 0  9993,2 45081  53.0538 231.3815 0001253  94.2371 265.8762 15.06411638313754
STARLINK-1190,45083,53.0476,0.0007391,15.79434739,327.0816606797225,337.00064602600924,1 45083U 20006AR  25281.75251667  .00195034  00000+0  10337-2 0  9992,2 45083  53.0476 192.1969 0007391 104.6164 255.5676 15.79434739314350
STARLINK-1173,45084,53.0411,0.0003205,15.93662035,289.9072997607236,294.1828864824147,1 45084U 20006AS  25280.95568051  .00395069  72039-4  10741-2 0  9997,2 45084  53.0411 158.6629 0003205  77.0162 283.1222 15.93662035314757
STARLINK-1185,45087,53.0545,0.0001518,15.06405697,546.1428322482216,548.2453627694258,1 45087U 20006AV  25281.80924441  .00004674  00000+0  33242-3 0  9999,2 45087  53.0545 208.4345 0001518  78.1557 281.9602 15.06405697314135
STARLINK-1183,45088,53.0547,0.0001434,15.06397893,546.2249196881039,548.2111115065782,1 45088U 20006AW  25281.49961286 -.00000745  00000+0 -31133-4 0  9998,2 45088  53.0547 209.8263 0001434  86.5175 273.5978 15.06397893314083
STARLINK-1176,45090,53.0451,8.4e-05,15.90825205,299.41148654904555,300.5334089362668,1 45090U 20006AY  25281.64770571  .00312307  47354-4  98683-3 0  9991,2 45090  53.0451 153.2011 0000840  38.9616 321.1470 15.90825205314896
STARLINK-1142,45093,53.0357,0.0004704,15.54595001,400.1401649018053,406.5201692125729,1 45093U 20006BB  25281.36068969  .00115691  00000+0  17019-2 0  9996,2 45093  53.0357 152.1992 0004704 146.0290 214.1022 15.54595001314883
STARLINK-1147,45095,53.033,0.0001763,16.09641465,246.65887237620336,248.9951872931224,1 45095U 20006BD  25281.85427270  .00826201  38740-3  87926-3 0  9993,2 45095  53.0330 147.1253 0001763 214.3994 145.6925 16.09641465314991
STARLINK-1152,45096,53.0475,0.0008845,15.22496687,492.2304790713306,504.39491858856036,1 45096U 20006BE  25281.82135206  .00012599  00000+0  54967-3 0  9996,2 45096  53.0475 193.2483 0008845  98.7703 261.4295 15.22496687314343
STARLINK-1184,45098,53.0516,0.0002903,15.06403019,545.1918791532607,549.2127311538325,1 45098U 20006BG  25281.77974889  .00003272  00000+0  23845-3 0  9999,2 45098  53.0516 208.5653 0002903  92.6639 267.4683 15.06403019314122
STARLINK-1193,45100,53.0538,0.0001436,15.06412333,546.179284702399,548.1682339524768,1 45100U 20006BJ  25281.24528836  .00008806  00000+0  60913-3 0  9997,2 45100  53.0538 210.9668 0001436  87.8295 272.2859 15.06412333314046
STARLINK-1143,45179,53.0538,0.0005418,15.3694894,451.43545732269195,458.83999381531885,1 45179U 20012B   25281.85044273  .00079563  00000+0  21570-2 0  9998,2 45179  53.0538 337.1202 0005418 310.1561  49.8966 15.36948940312394
STARLINK-1202,45183,53.0558,0.000128,15.06393783,546.3441651590347,548.1170592677609,1 45183U 20012F   25281.50698893  .00001696  00000+0  13274-3 0  9993,2 45183  53.0558   9.7949 0001280  87.2355 272.8781 15.06393783311902
STARLINK-1216,45185,53.0565,0.0001767,15.06403198,545.978049187931,548.4254639044939,1 45185U 20012H   25281.63231410  .00003035  00000+0  22257-3 0  9997,2 45185  53.0565   9.2312 0001767  97.7501 262.3688 15.06403198311867
STARLINK-1225,45187,53.0555,0.0001568,15.06402543,546.1178705887032,548.2896574523002,1 45187U 20012K   25281.65074005  .00001146  00000+0  95834-4 0  9999,2 45187  53.0555   9.1472 0001568 101.1201 258.9964 15.06402543311917
STARLINK-1230,45189,53.0567,0.0001163,15.06399585,546.407411668587,548.0182480390113,1 45189U 20012M   25281.58808233  .00002741  00000+0  20281-3 0  9996,2 45189  53.0567   9.4293 0001163  95.9084 264.2038 15.06399585309130
STARLINK-1234,45190,53.0544,0.0001445,15.0641027,546.1793737278977,548.1807903646086,1 45190U 20012N   25281.54016655  .00007854  00000+0  54544-3 0  9992,2 45190  53.0544 329.6449 0001445  80.7329 279.3823 15.06410270312367
STARLINK-1269,45197,53.0556,0.0001714,15.06405984,546.0062163014945,548.3802195001908,1 45197U 20012V   25281.59913206  .00001502  00000+0  11971-3 0  9993,2 45197  53.0556   9.3822 0001714  88.5775 271.5410 15.06405984311882
STARLINK-1154,45198,53.0539,0.0001303,15.06400421,546.3078948852399,548.112640383185,1 45198U 20012W   25281.45724223  .00000397  00000+0  45555-4 0  9995,2 45198  53.0539 350.0190 0001303  94.4377 265.6760 15.06400421312116
STARLINK-1199,45201,53.0553,0.0001785,15.06407533,545.9522998779603,548.4246410709202,1 45201U 20012Z   25281.60098587  .00006959  00000+0  48551-3 0  9992,2 45201  53.0553 349.3733 0001785  92.4618 267.6575 15.06407533312196
STARLINK-1209,45206,53.0545,0.0001477,15.06404759,546.1741004993864,548.2198441548117,1 45206U 20012AE  25281.41115945  .00002969  00000+0  21808-3 0  9997,2 45206  53.0545 330.2262 0001477  88.8107 271.3051 15.06404759311498
STARLINK-1210,45207,53.0265,0.0013039,15.50876984,405.3077906145718,423.020753872328,1 45207U 20012AF  25281.34389281  .00132863  00000+0  22226-2 0  9997,2 45207  53.0265 298.1762 0013039 330.5565  29.4707 15.50876984312894
STARLINK-1231,45212,53.0534,0.0003112,15.10410615,532.7954561242914,537.0981594862697,1 45212U 20012AL  25281.49270344  .00023841  00000+0  14472-2 0  9997,2 45212  53.0534 348.9918 0003112 301.5779  58.4908 15.10410615312146
STARLINK-1271,45217,53.0548,0.0001383,15.0640841,546.2280104786196,548.1435547602923,1 45217U 20012AR  25281.45354322  .00005984  00000+0  42021-3 0  9997,2 45217  53.0548 350.0336 0001383  89.6035 270.5112 15.06408410312173
STARLINK-1191,45222,53.0552,0.0001463,15.06392167,546.2223830528774,548.2487470654141,1 45222U 20012AW  25281.46276873  .00000202  00000+0  32444-4 0  9995,2 45222  53.0552 329.9921 0001463  87.0429 273.0728 15.06392167312450
STARLINK-1212,45223,53.0547,0.0001573,15.0640224,546.1153364211468,548.2940489176599,1 45223U 20012AX  25281.41492303  .00000697  00000+0  65703-4 0  9991,2 45223  53.0547 330.8633 0001573  87.6639 272.4530 15.06402240312444
STARLINK-1215,45225,53.0561,0.0001473,15.06391395,546.2178234221155,548.258038876832,1 45225U 20012AZ  25281.43695546  .00000081  00000+0  24321-4 0  9997,2 45225  53.0561 330.1084 0001473 101.6908 258.4246 15.06391395312402
STARLINK-1217,45226,53.0379,0.0001604,16.03697785,263.1230887834954,265.2539468096038,1 45226U 20012BA  25281.94313564  .00660940  21915-3  10193-2 0  9999,2 45226  53.0379 267.4468 0001604  93.4087 266.7128 16.03697785313288
STARLINK-1221,45227,53.0681,0.0001826,15.35818182,457.24297999539795,459.73971666820853,1 45227U 20012BB  25281.29004633  .00019975  00000+0  57428-3 0  9999,2 45227  53.0681 268.4434 0001826 252.4270 107.6533 15.35818182313245
STARLINK-1222,45228,53.0546,0.0001368,15.06407337,546.2416865747309,548.136455787806,1 45228U 20012BC  25281.53648008  .00004932  00000+0  34972-3 0  9993,2 45228  53.0546 329.6613 0001368  83.9030 276.2115 15.06407337312351
STARLINK-1226,45229,53.0558,0.0001554,15.06395792,546.1482537121474,548.3006560523245,1 45229U 20012BD  25281.43327597 -.00001341  00000+0 -71182-4 0  9998,2 45229  53.0558 330.1262 0001554  91.9333 268.1835 15.06395792312343
STARLINK-1227,45230,53.0543,0.0001434,15.06402051,546.2121778440141,548.1983660076021,1 45230U 20012BE  25281.42958717  .00002784  00000+0  20569-3 0  9995,2 45230  53.0543 330.1402 0001434  91.1716 268.9437 15.06402051312465
STARLINK-1246,45235,53.0566,0.0001208,15.0639745,546.3827902821358,548.0559563819324,1 45235U 20012BK  25281.57702249  .00000726  00000+0  67640-4 0  9999,2 45235  53.0566   9.4775 0001208  91.1886 268.9241 15.06397450311931
STARLINK-1270,45237,53.0555,0.0001504,15.06401369,546.1657903615596,548.2489339456961,1 45237U 20012BM  25281.84610200  .00001784  00000+0  13865-3 0  9990,2 45237  53.0555 328.2731 0001504  80.9133 279.2026 15.06401369312511
STARLINK-1279,45360,53.0509,0.0002316,15.06436482,545.495863288289,548.7036329500179,1 45360U 20019A   25281.20748556  .00003281  00000+0  23883-3 0  9995,2 45360  53.0509 101.1337 0002316  82.7400 277.3852 15.06436482307150
STARLINK-1301,45361,53.0507,0.0001416,15.06415174,546.1844294335197,548.1456749747049,1 45361U 20019B   25281.52727449  .00014368  00000+0  98108-3 0  9999,2 45361  53.0507 109.7021 0001416  89.4675 270.6476 15.06415174307075
STARLINK-1306,45362,53.0495,0.0008603,15.61173797,378.44763711741143,390.0830265695822,1 45362U 20019C   25281.21999270  .00165542  00000+0  18866-2 0  9992,2 45362  53.0495 108.1972 0008603 155.7545 204.3874 15.61173797307066
STARLINK-1262,45366,53.0504,8.37e-05,15.06390437,546.6612131835118,547.8205214384998,1 45366U 20019G   25281.75761979 -.00003882  00000+0 -24195-3 0  9991,2 45366  53.0504 128.6636 0000837  77.1809 282.9273 15.06390437306836
